[{"OBJECT_NAME":"SALSAT","OBJECT_ID":"2020-068K","EPOCH":"2026-03-09T22:26:21.804576","MEAN_MOTION":15.28191989,"ECCENTRICITY":0.00082652,"INCLINATION":97.8859,"RA_OF_ASC_NODE":66.0795,"ARG_OF_PERICENTER":295.8051,"MEAN_ANOMALY":64.2334,"EPHEMERIS_TYPE":0,"CLASSIFICATION_TYPE":"U","NORAD_CAT_ID":46495,"ELEMENT_SET_NO":999,"REV_AT_EPOCH":30019,"BSTAR":0.00040842582,"MEAN_MOTION_DOT":0.00011156,"MEAN_MOTION_DDOT":0},{"OBJECT_NAME":"STARLINK-35976","OBJECT_ID":"2025-265U","EPOCH":"2026-03-09T21:57:14.393952","MEAN_MOTION":15.27600321,"ECCENTRICITY":0.00014722,"INCLINATION":42.9985,"RA_OF_ASC_NODE":277.0216,"ARG_OF_PERICENTER":268.9183,"MEAN_ANOMALY":91.15,"EPHEMERIS_TYPE":0,"CLASSIFICATION_TYPE":"U","NORAD_CAT_ID":66534,"ELEMENT_SET_NO":999,"REV_AT_EPOCH":1714,"BSTAR":0.00087417326,"MEAN_MOTION_DOT":0.00023886,"MEAN_MOTION_DDOT":0}]
